{
    "links": {
        "self": "http://www.neowsapp.com/rest/v1/neo/3978224?api_key=iIulBulltgU6a56xZRHN4H3l9WmuAYTsLGpBGhQ2"
    },
    "id": "3978224",
    "neo_reference_id": "3978224",
    "name": "(2020 AM2)",
    "designation": "2020 AM2",
    "nasa_jpl_url": "http://ssd.jpl.nasa.gov/sbdb.cgi?sstr=3978224",
    "absolute_magnitude_h": 26.7,
    "estimated_diameter": {
        "kilometers": {
            "estimated_diameter_min": 0.0121494041,
            "estimated_diameter_max": 0.0271668934
        },
        "meters": {
            "estimated_diameter_min": 12.14940408,
            "estimated_diameter_max": 27.1668934089
        },
        "miles": {
            "estimated_diameter_min": 0.0075492874,
            "estimated_diameter_max": 0.0168807197
        },
        "feet": {
            "estimated_diameter_min": 39.8602508817,
            "estimated_diameter_max": 89.1302305717
        }
    },
    "is_potentially_hazardous_asteroid": false,
    "close_approach_data": [
        {
            "close_approach_date": "2020-01-04",
            "close_approach_date_full": "2020-Jan-04 13:43",
            "epoch_date_close_approach": 1578145380000,
            "relative_velocity": {
                "kilometers_per_second": "10.1138872947",
                "kilometers_per_hour": "36409.9942609326",
                "miles_per_hour": "22623.7544895223"
            },
            "miss_distance": {
                "astronomical": "0.0276286812",
                "lunar": "10.7475569868",
                "kilometers": "4133191.858429044",
                "miles": "2568246.3296630472"
            },
            "orbiting_body": "Earth"
        }
    ],
    "orbital_data": {
        "orbit_id": "1",
        "orbit_determination_date": "2020-01-07 11:42:09",
        "first_observation_date": "2020-01-06",
        "last_observation_date": "2020-01-07",
        "data_arc_in_days": 1,
        "observations_used": 28,
        "orbit_uncertainty": "8",
        "minimum_orbit_intersection": ".0269659",
        "jupiter_tisserand_invariant": "3.195",
        "epoch_osculation": "2458855.5",
        "eccentricity": ".593343010916297",
        "semi_major_axis": "2.465538684186335",
        "inclination": "11.78898144782828",
        "ascending_node_longitude": "106.8301936638767",
        "orbital_period": "1414.054532981698",
        "perihelion_distance": "1.00262853778061",
        "perihelion_argument": "347.1657184709644",
        "aphelion_distance": "3.928448830592061",
        "perihelion_time": "2458845.289872064252",
        "mean_anomaly": "2.599366552801011",
        "mean_motion": ".2545870697369063",
        "equinox": "J2000",
        "orbit_class": {
            "orbit_class_type": "APO",
            "orbit_class_description": "Near-Earth asteroid orbits which cross the Earth’s orbit similar to that of 1862 Apollo",
            "orbit_class_range": "a (semi-major axis) > 1.0 AU; q (perihelion) < 1.017 AU"
        }
    },
    "is_sentry_object": false
}